0 ONEWEB-0612
1 54675U 22166AK  23281.50344905  .00000045  00000-0  77162-4 0  9996
2 54675  87.9181  79.6072 0001463 103.9553 256.1744 13.21826139 41611
0 ONEWEB-0615
1 54676U 22166AL  23281.48451933  .00000127  00000-0  27687-3 0  9991
2 54676  87.9193  79.6233 0001840  97.6668 262.4675 13.21823780 41622
0 ONEWEB-0655
1 54677U 22166AM  23281.53495775 -.00003114  00000-0 -75728-2 0  9999
2 54677  87.9186  79.6204 0001639  93.1746 266.9575 13.21835039 41625
0 ONEWEB-0659
1 54678U 22166AN  23281.70321221  .00000162  00000-0  36149-3 0  9996
2 54678  87.9163  79.6150 0001549  81.1765 278.9545 13.21827829 42202
0 ONEWEB-0685
1 54679U 22166AP  23281.47821143  .00000085  00000-0  17508-3 0  9991
2 54679  87.9191  79.6245 0002318 113.2938 246.8440 13.21825382 41594
0 ONEWEB-0712
1 54680U 22166AQ  23281.37448820  .00000127  00000-0  29797-3 0  9999
2 54680  87.9080  64.3277 0001861  80.7038 279.4303 13.16597494 42731
0 ONEWEB-0714
1 54681U 22166AR  23281.48241405  .00000106  00000-0  22461-3 0  9990
2 54681  87.9182  79.6134 0001936 100.8546 259.2805 13.21824604 41719
0 ONEWEB-0532
1 55140U 23004A   23281.49435025  .00000115  00000-0  26410-3 0  9995
2 55140  87.9252 201.1443 0001011  88.2757 271.8490 13.17652884 38170
